{
    "links": {
        "self": "http://www.neowsapp.com/rest/v1/neo/54051306?api_key=iIulBulltgU6a56xZRHN4H3l9WmuAYTsLGpBGhQ2"
    },
    "id": "54051306",
    "neo_reference_id": "54051306",
    "name": "(2020 QS3)",
    "designation": "2020 QS3",
    "nasa_jpl_url": "http://ssd.jpl.nasa.gov/sbdb.cgi?sstr=54051306",
    "absolute_magnitude_h": 25.199,
    "estimated_diameter": {
        "kilometers": {
            "estimated_diameter_min": 0.0242524142,
            "estimated_diameter_max": 0.0542300467
        },
        "meters": {
            "estimated_diameter_min": 24.2524141883,
            "estimated_diameter_max": 54.2300467435
        },
        "miles": {
            "estimated_diameter_min": 0.0150697469,
            "estimated_diameter_max": 0.0336969784
        },
        "feet": {
            "estimated_diameter_min": 79.5682905655,
            "estimated_diameter_max": 177.9201065578
        }
    },
    "is_potentially_hazardous_asteroid": false,
    "close_approach_data": [
        {
            "close_approach_date": "2020-08-21",
            "close_approach_date_full": "2020-Aug-21 03:25",
            "epoch_date_close_approach": 1597980300000,
            "relative_velocity": {
                "kilometers_per_second": "8.2486714101",
                "kilometers_per_hour": "29695.2170761869",
                "miles_per_hour": "18451.4530771451"
            },
            "miss_distance": {
                "astronomical": "0.1363886856",
                "lunar": "53.0551986984",
                "kilometers": "20403456.857859672",
                "miles": "12678120.1992285936"
            },
            "orbiting_body": "Earth"
        }
    ],
    "orbital_data": {
        "orbit_id": "3",
        "orbit_determination_date": "2020-08-27 06:50:10",
        "first_observation_date": "2020-08-18",
        "last_observation_date": "2020-08-26",
        "data_arc_in_days": 8,
        "observations_used": 21,
        "orbit_uncertainty": "8",
        "minimum_orbit_intersection": ".136093",
        "jupiter_tisserand_invariant": "4.951",
        "epoch_osculation": "2459081.5",
        "eccentricity": ".1336724518948532",
        "semi_major_axis": "1.301791895597962",
        "inclination": "15.88071034255027",
        "ascending_node_longitude": "323.2220100563315",
        "orbital_period": "542.5137777913969",
        "perihelion_distance": "1.127778181056534",
        "perihelion_argument": "34.56666626056362",
        "aphelion_distance": "1.475805610139391",
        "perihelion_time": "2459115.850323355092",
        "mean_anomaly": "337.2058942757615",
        "mean_motion": ".6635776172645412",
        "equinox": "J2000",
        "orbit_class": {
            "orbit_class_type": "AMO",
            "orbit_class_description": "Near-Earth asteroid orbits similar to that of 1221 Amor",
            "orbit_class_range": "1.017 AU < q (perihelion) < 1.3 AU"
        }
    },
    "is_sentry_object": false
}